ASTRA 2E                
1 39285U 13056A   21360.91440718  .00000169  00000+0  00000+0 0  9992
2 39285   0.0590 347.8027 0002173 286.8674 178.6107  1.00271414 30067
SES-8                   
1 39460U 13071A   21361.12132822 -.00000250  00000+0  00000+0 0  9994
2 39460   0.0351 249.6540 0000685   6.8861 337.9785  1.00272361 29499
ASTRA 5B                
1 39617U 14011B   21360.92115277  .00000174  00000+0  00000+0 0  9999
2 39617   0.0300  15.2988 0003513 258.7177 184.7313  1.00269450 28298
O3B FM3                 
1 40079U 14038A   21360.60033975 -.00000008  00000+0  00000+0 0  9998
2 40079   0.0471  15.3082 0003784 298.6292  46.0329  5.00115333131328
O3B FM7                 
1 40080U 14038B   21360.74651688 -.00000008  00000+0  00000+0 0  9992
2 40080   0.0478  20.5077 0002728 214.1077 125.3607  5.00115871136153
O3B FM6                 
1 40081U 14038C   21360.77272580 -.00000008  00000+0  00000+0 0  9996
2 40081   0.0482  15.0195 0002665 261.0208  83.9308  5.00115464136117
O3B FM8                 
1 40082U 14038D   21360.82671493 -.00000008  00000+0  00000+0 0  9999
2 40082   0.0513  15.9719 0002826 260.4175  83.5800  5.00115411136226
O3B FM10                
1 40348U 14083A   21360.65289390 -.00000008  00000+0  00000+0 0  9996
2 40348   0.0450   4.7779 0002668 271.3983  83.7949  5.00115855128178
O3B FM11                
1 40349U 14083B   21360.46632063 -.00000008  00000+0  00000+0 0  9995
2 40349   0.0409   8.0614 0002117 255.9765  95.9394  5.00115147128187
O3B FM12                
1 40350U 14083C   21360.53381419 -.00000008  00000+0  00000+0 0  9991
2 40350   0.0419   8.5618 0002628 261.7705  89.6391  5.00115727128197
O3B FM9                 
1 40351U 14083D   21360.72027689 -.00000008  00000+0  00000+0 0  9999
2 40351   0.0398   8.5450 0002606 266.7834  84.6434  5.00114964128355
ASTRA 2G                
1 40364U 14089A   21360.91440758  .00000169  00000+0  00000+0 0  9993
2 40364   0.0280  16.3001 0002059 354.9054  81.8097  1.00269808 25594
SES-9                   
1 41380U 16013A   21360.76507803 -.00000326  00000+0  00000+0 0  9995
2 41380   0.0314 294.3227 0000465  80.4287 104.4533  1.00270253 21068
SES-10                  
1 42432U 17017A   21361.14060446 -.00000253  00000+0  00000+0 0  9998
2 42432   0.0092 352.7767 0002662 284.6490 162.1413  1.00268935 17352
SES-15                  
1 42709U 17026A   21361.13708368  .00000079  00000+0  00000+0 0  9991
2 42709   0.0183   8.8738 0000419 282.0691  85.0984  1.00270674 17810
SES-11 (ECHOSTAR 105)   
1 42967U 17063A   21361.18466073 -.00000070  00000+0  00000+0 0  9999
2 42967   0.0219  15.9261 0002164 267.5037 133.9877  1.00269644 15432
SES-14                  
1 43175U 18012B   21360.83384734 -.00000259  00000+0  00000+0 0  9999
2 43175   0.0115 331.9287 0001013 296.1819  80.1228  1.00271662 14688
O3B FM15                
1 43231U 18024A   21360.78657649 -.00000008  00000+0  00000+0 0  9999
2 43231   0.0478   2.1592 0002691 275.3322  82.4795  5.00115705 69313
O3B FM16                
1 43232U 18024B   21360.64001167 -.00000008  00000+0  00000+0 0  9993
2 43232   0.0507 358.6923 0002683 278.0397  83.2390  5.00115638 69222
O3B FM14                
1 43233U 18024C   21360.67960918 -.00000008  00000+0  00000+0 0  9995
2 43233   0.0521 358.1130 0002634 274.7292  87.1292  5.00116123 69232
O3B FM13                
1 43234U 18024D   21355.69620639 -.00000015  00000+0  00000+0 0  9993
2 43234   0.0243 354.2635 0000799 356.6627   9.0739  5.00115550 69213
SES-12                  
1 43488U 18049A   21360.68452059 -.00000250  00000+0  00000+0 0  9996
2 43488   0.0218  45.1315 0002389 233.6948 157.9913  1.00269509 13030
O3B FM20                
1 44112U 19020A   21360.50623875 -.00000008  00000+0  00000+0 0  9999
2 44112   0.0455   5.3109 0002327 271.1088  83.5553  5.00115248 49847
O3B FM19                
1 44113U 19020B   21349.49958875 -.00000020  00000+0  00000+0 0  9990
2 44113   0.0276 317.8520 0002148 336.6128  65.5148  5.00115365 49356
O3B FM17                
1 44114U 19020C   21360.81346549 -.00000008  00000+0  00000+0 0  9995
2 44114   0.0650   8.3777 0002656 270.9377  80.6561  5.00115259 49819
O3B FM18                
1 44115U 19020D   21360.76012624 -.00000008  00000+0  00000+0 0  9994
2 44115   0.0451   5.0241 0002826 272.3003  82.6451  5.00115569 49926
SES-17                  
1 49332U 21095A   21357.72155212 -.00000099  00000+0  00000+0 0  9998
2 49332   4.0569 259.7519 5707269 185.7053 148.9605  1.61861071  1218
ISS (ZARYA)             
1 25544U 98067A   21361.15255852 -.00027449  00000+0 -47888-3 0  9991
2 25544  51.6427 108.5306 0005127 329.6854  94.5817 15.49737411318505
AEROCUBE 12A            
1 43556U 18046C   21360.89680014  .00009750  00000+0  30566-3 0  9993
2 43556  51.6402 300.9114 0007898 130.3210 229.8463 15.33683390192796
AEROCUBE 12B            
1 43557U 18046D   21361.14536746  .00006828  00000+0  22352-3 0  9992
2 43557  51.6399 302.5210 0008143 129.7904 230.3796 15.32809784192740
LEMUR-2-VU              
1 43558U 18046E   21360.85743844  .00017833  00000+0  49398-3 0  9996
2 43558  51.6401 289.6863 0007463 136.5680 223.5892 15.37010031192931
LEMUR-2-ALEXANDER       
1 43559U 18046F   21360.80920151  .00021060  00000+0  57551-3 0  9997
2 43559  51.6401 288.6399 0007430 137.8056 222.3500 15.37316074192726
LEMUR-2-YUASA           
1 43560U 18046G   21360.89545349  .00019238  00000+0  53242-3 0  9997
2 43560  51.6396 289.9390 0007504 148.4674 211.6761 15.36983238192936
LEMUR-2-TOMHENDERSON    
1 43561U 18046H   21360.89868241  .00017083  00000+0  48288-3 0  9997
2 43561  51.6397 291.4312 0007602 144.9843 215.1641 15.36410902192476
ISS DEB (SEDA-AP)       
1 43870U 98067PU  21361.14000261  .00022660  00000+0  21068-3 0  9994
2 43870  51.6347  35.5644 0003565 350.2875   9.8052 15.67309339171780
ISS DEB                 
1 44303U 98067QA  21360.80061268  .00031839  00000+0  31474-3 0  9992
2 44303  51.6371  62.8308 0003814 262.0924  97.9639 15.65573212146671
ISS DEB                 
1 44306U 98067QD  21360.76668490  .00036048  00000+0  33531-3 0  9993
2 44306  51.6355  60.9606 0004596 260.9582  99.0894 15.67024814146702
RED-EYE 1 (PINOT)       
1 44364U 98067QJ  21360.58515798  .00034440  00000+0  34395-3 0  9992
2 44364  51.6384  65.1466 0005114 255.9413 104.1014 15.65269031142217
KRAKSAT                 
1 44427U 98067QM  21361.12642318  .00356489  62459-4  82201-3 0  9992
2 44427  51.6338  27.9215 0004715  25.8697  14.3493 15.96680804141860
RWASAT-1                
1 44790U 98067QV  21360.67741878  .00013707  00000+0  11951-3 0  9991
2 44790  51.6357  67.5789 0005279 310.5568 196.2776 15.69315840119524
AQT-D                   
1 44791U 98067QW  21361.08532151  .00054618  00000+0  44513-3 0  9996
2 44791  51.6338  65.4826 0004904 290.5329  69.5142 15.70068163119590
STPSAT-4                
1 45043U 98067QY  21360.53133382  .00025140  00000+0  32327-3 0  9997
2 45043  51.6404  93.2784 0004458 276.3903  83.6582 15.58908737108411
HARP                    
1 45256U 98067QZ  21360.60914644  .00075582  00000+0  60461-3 0  9994
2 45256  51.6415  75.1435 0005233 294.2681  65.7770 15.70381756105333
1998-067RA              
1 45257U 98067RA  21360.51734055  .00049508  00000+0  46424-3 0  9993
2 45257  51.6352  79.6314 0005748 284.3802  75.6556 15.66671998105264
PHOENIX                 
1 45258U 98067RB  21360.81463423  .00038080  00000+0  40444-3 0  9994
2 45258  51.6369  82.3831 0004645 264.4600  95.5865 15.63662068105223
1998-067RC              
1 45259U 98067RC  21360.58604232  .00179446  00000+0  80861-3 0  9993
2 45259  51.6290  63.4860 0005696 330.6107  29.4575 15.82973533105489
RADSAT-U                
1 45262U 98067RF  21360.84228766  .00051525  00000+0  46294-3 0  9999
2 45262  51.6411  76.6936 0005254 315.7423  44.3153 15.67714847105340
QARMAN                  
1 45263U 98067RG  21360.57461191  .00188821  00000+0  82915-3 0  9991
2 45263  51.6321  64.1625 0005518 329.6245  30.4438 15.83496235105503
SORTIE                  
1 45264U 98067RH  21360.70038250  .00025467  00000+0  31505-3 0  9998
2 45264  51.6398  89.2161 0006138 278.4799  81.5498 15.59915389105158
ICS-EF (ISS DEB)        
1 45265U 98067RJ  21360.74528754  .00014158  00000+0  21313-3 0  9997
2 45265  51.6396  98.4372 0004538 270.6311  89.4160 15.55089899104717
G-SAT                   
1 45597U 98067RK  21360.62605316  .00058870  00000+0  51925-3 0  9993
2 45597  51.6372  79.6560 0004190 332.0675  28.0096 15.68118564 94642
QUETZAL-1               
1 45598U 98067RL  21360.57393020  .00115701  00000+0  71037-3 0  9997
2 45598  51.6357  73.2611 0003918 347.3813  12.7088 15.76392463 94656
RED-EYE 2 (MERLOT)      
1 45800U 98067RM  21360.63899727  .00021132  00000+0  28948-3 0  9992
2 45800  51.6408  96.2877 0001015 287.1143  72.9738 15.57334913 86590
RED-EYE 3 (CABERNET)    
1 45809U 98067RN  21360.51033829  .00021277  00000+0  29112-3 0  9995
2 45809  51.6406  96.9286 0001364 260.2564  99.8274 15.57362279 85558
DEMI                    
1 45916U 98067RP  21360.80011484  .00098954  00000+0  70678-3 0  9998
2 45916  51.6375  77.0855 0002304 301.0519  59.0254 15.72972651 82835
SPOC                    
1 46921U 98067RR  21360.81508845  .00037508  00000+0  44107-3 0  9994
2 46921  51.6389  92.9796 0001186  55.2941 304.8164 15.61052307 64837
BOBCAT-1                
1 46922U 98067RS  21360.62030305  .00066560  00000+0  60551-3 0  9996
2 46922  51.6402  87.9637 0001167   8.3154 351.7861 15.67315723 64842
NEUTRON-1               
1 46923U 98067RT  21360.78260895  .00035893  00000+0  42426-3 0  9999
2 46923  51.6395  93.5140 0001017  73.0054 287.1051 15.60939360 64854
1998-067RU              
1 46924U 98067RU  21360.56689390  .01388052  12328-2  16666-2 0  9995
2 46924  51.6217  70.0511 0009307  11.6534 348.4693 16.07833550 65097
